NORAD_CAT_ID,OBJECT_NAME,OBJECT_TYPE,EPOCH,MEAN_MOTION,ECCENTRICITY,INCLINATION,RA_OF_ASC_NODE,ARG_OF_PERICENTER,MEAN_ANOMALY,BSTAR,MEAN_MOTION_DOT,MEAN_MOTION_DDOT,TLE_LINE0,TLE_LINE1,TLE_LINE2,SEMIMAJOR_AXIS,PERIOD,APOGEE,PERIGEE,DECAYED
52997.0,STARLINK-4301,PAYLOAD,2024-04-30 05:39:05,15.30419509,0.0002147,53.2416,219.1456,31.7082,328.4049,0.00072698,0.00021379,0.0,0 STARLINK-4301,1 52997U 22076M   24121.23548568  .00021379  00000-0  72698-3 0  9997,2 52997  53.2416 219.1456 0002147  31.7082 328.4049 15.30419509101489,6852.697,94.092,476.033,473.09,0.0
52997.0,STARLINK-4301,PAYLOAD,2024-04-30 13:29:17,15.30452897,0.0002175,53.2411,217.6331,30.99,329.123,0.00090463,0.00026739,0.0,0 STARLINK-4301,1 52997U 22076M   24121.56200500  .00026739  00000-0  90463-3 0  9999,2 52997  53.2411 217.6331 0002175  30.9900 329.1230 15.30452897101533,6852.597,94.09,475.953,472.972,0.0
52997.0,STARLINK-4301,PAYLOAD,2024-05-01 12:59:49,15.30511024,0.0002197,53.2409,213.09,29.7681,330.3445,0.0010515,0.00031215,0.0,0 STARLINK-4301,1 52997U 22076M   24122.54154548  .00031215  00000-0  10515-2 0  9992,2 52997  53.2409 213.0900 0002197  29.7681 330.3445 15.30511024101213,6852.424,94.086,475.794,472.783,0.0
52997.0,STARLINK-4301,PAYLOAD,2024-05-02 12:30:17,15.30598607,0.000212,53.2418,208.5478,33.6511,326.4625,0.001304,0.00038944,0.0,0 STARLINK-4301,1 52997U 22076M   24123.52103543  .00038944  00000-0  13040-2 0  9992,2 52997  53.2418 208.5478 0002120  33.6511 326.4625 15.30598607101830,6852.162,94.081,475.48,472.575,0.0
52997.0,STARLINK-4301,PAYLOAD,2024-05-03 12:00:39,15.30705945,0.0002222,53.2409,204.0023,24.7232,335.3876,0.0014693,0.00044104,0.0,0 STARLINK-4301,1 52997U 22076M   24124.50046209  .00044104  00000-0  14693-2 0  9996,2 52997  53.2409 204.0023 0002222  24.7232 335.3876 15.30705945101989,6851.842,94.074,475.229,472.184,0.0
52997.0,STARLINK-4301,PAYLOAD,2024-05-03 15:08:42,15.30718596,0.0002255,53.2408,203.3962,24.6991,335.4119,0.0013833,0.00041503,0.0,0 STARLINK-4301,1 52997U 22076M   24124.63104728  .00041503  00000-0  13833-2 0  9996,2 52997  53.2408 203.3962 0002255  24.6991 335.4119 15.30718596101537,6851.804,94.073,475.214,472.124,0.0
52997.0,STARLINK-4301,PAYLOAD,2024-05-04 11:30:56,15.30805151,0.0002366,53.2417,199.4581,26.0412,334.0708,0.0013051,0.00039231,0.0,0 STARLINK-4301,1 52997U 22076M   24125.47982063  .00039231  00000-0  13051-2 0  9992,2 52997  53.2417 199.4581 0002366  26.0412 334.0708 15.30805151102136,6851.546,94.068,475.032,471.79,0.0
52997.0,STARLINK-4301,PAYLOAD,2024-05-05 04:45:05,15.30894394,0.0002508,53.2421,196.125,25.66,334.4526,0.0018543,0.00056176,0.0,0 STARLINK-4301,1 52997U 22076M   24126.19797542  .00056176  00000-0  18543-2 0  9996,2 52997  53.2421 196.1250 0002508  25.6600 334.4526 15.30894394102241,6851.28,94.063,474.863,471.426,0.0
52997.0,STARLINK-4301,PAYLOAD,2024-05-05 11:01:07,15.3092145,0.0002602,53.2427,194.9132,25.4086,334.7044,0.0018882,0.00057267,0.0,0 STARLINK-4301,1 52997U 22076M   24126.45911386  .00057267  00000-0  18882-2 0  9997,2 52997  53.2427 194.9132 0002602  25.4086 334.7044 15.30921450101817,6851.199,94.061,474.846,471.281,0.0
52997.0,STARLINK-4301,PAYLOAD,2024-05-05 21:59:10,15.30971887,0.0002767,53.2425,192.7926,25.8093,334.3047,0.0020954,0.00063747,0.0,0 STARLINK-4301,1 52997U 22076M   24126.91609418  .00063747  00000-0  20954-2 0  9991,2 52997  53.2425 192.7926 0002767  25.8093 334.3047 15.30971887101881,6851.048,94.058,474.809,471.018,0.0
52997.0,STARLINK-4301,PAYLOAD,2024-05-06 10:31:12,15.31035874,0.0002818,53.2434,190.3674,27.1308,332.9841,0.0024127,0.00073701,0.0,0 STARLINK-4301,1 52997U 22076M   24127.43833842  .00073701  00000-0  24127-2 0  9996,2 52997  53.2434 190.3674 0002818  27.1308 332.9841 15.31035874102432,6850.857,94.054,474.653,470.792,0.0
52997.0,STARLINK-4301,PAYLOAD,2024-05-06 21:29:13,15.31031105,0.0002863,53.2407,188.2481,20.9129,339.199,0.0016699,0.00050734,0.0,0 STARLINK-4301,1 52997U 22076M   24127.89530008  .00050734  00000-0  16699-2 0  9990,2 52997  53.2407 188.2481 0002863  20.9129 339.1990 15.31031105102039,6850.872,94.054,474.698,470.775,0.0
52997.0,STARLINK-4301,PAYLOAD,2024-05-07 11:35:14,15.31052203,0.0002972,53.2413,185.5205,22.4129,337.7002,0.00082018,0.00024663,0.0,0 STARLINK-4301,1 52997U 22076M   24128.48281020  .00024663  00000-0  82018-3 0  9994,2 52997  53.2413 185.5205 0002972  22.4129 337.7002 15.31052203102599,6850.809,94.053,474.71,470.638,0.0
52997.0,STARLINK-4301,PAYLOAD,2024-05-08 11:05:11,15.31187658,0.0003093,53.2414,180.9757,22.9275,337.1865,0.0020213,0.00061881,0.0,0 STARLINK-4301,1 52997U 22076M   24129.46193608  .00061881  00000-0  20213-2 0  9998,2 52997  53.2414 180.9757 0003093  22.9275 337.1865 15.31187658102744,6850.405,94.045,474.389,470.151,0.0
52997.0,STARLINK-4301,PAYLOAD,2024-05-08 20:29:08,15.31221433,0.000333,53.2403,179.159,23.5018,336.6136,0.0018631,0.00057034,0.0,0 STARLINK-4301,1 52997U 22076M   24129.85356866  .00057034  00000-0  18631-2 0  9994,2 52997  53.2403 179.1590 0003330  23.5018 336.6136 15.31221433102333,6850.304,94.043,474.45,469.888,0.0
52997.0,STARLINK-4301,PAYLOAD,2024-05-09 02:45:06,15.31232451,0.0003336,53.2395,177.946,23.5723,336.5431,0.0013882,0.00042334,0.0,0 STARLINK-4301,1 52997U 22076M   24130.11465291  .00042334  00000-0  13882-2 0  9998,2 52997  53.2395 177.9460 0003336  23.5723 336.5431 15.31232451102849,6850.271,94.042,474.421,469.851,0.0
52997.0,STARLINK-4301,PAYLOAD,2024-05-09 10:35:03,15.31231295,0.000295,53.2405,176.4269,19.7569,340.3547,0.0009927,0.00030117,0.0,0 STARLINK-4301,1 52997U 22076M   24130.44100924  .00030117  00000-0  99270-3 0  9995,2 52997  53.2405 176.4269 0002950  19.7569 340.3547 15.31231295102899,6850.275,94.042,474.16,470.119,0.0
52997.0,STARLINK-4301,PAYLOAD,2024-05-10 11:38:53,15.31253106,0.0003168,53.2399,171.5784,25.3202,334.7955,0.00054203,0.0001626,0.0,0 STARLINK-4301,1 52997U 22076M   24131.48533841  .00016260  00000-0  54203-3 0  9998,2 52997  53.2399 171.5784 0003168  25.3202 334.7955 15.31253106103052,6850.209,94.041,474.245,469.904,0.0
52997.0,STARLINK-4301,PAYLOAD,2024-05-10 19:28:49,15.31289824,0.0003185,53.2398,170.0637,26.1278,333.9884,0.001125,0.00034262,0.0,0 STARLINK-4301,1 52997U 22076M   24131.81168208  .00034262  00000-0  11250-2 0  9992,2 52997  53.2398 170.0637 0003185  26.1278 333.9884 15.31289824103107,6850.1,94.038,474.147,469.783,0.0
52997.0,STARLINK-4301,PAYLOAD,2024-05-11 01:44:45,15.31322615,0.0003176,53.241,168.847,14.6557,345.4537,0.0014083,0.00043077,0.0,0 STARLINK-4301,1 52997U 22076M   24132.07274923  .00043077  00000-0  14083-2 0  9994,2 52997  53.2410 168.8470 0003176  14.6557 345.4537 15.31322615103147,6850.002,94.036,474.043,469.692,0.0
52997.0,STARLINK-4301,PAYLOAD,2024-05-11 11:08:36,15.31486025,0.0003278,53.2381,167.0309,23.6774,336.4379,0.003798,0.00118586,0.0,0 STARLINK-4301,1 52997U 22076M   24132.46431692  .00118586  00000-0  37980-2 0  9994,2 52997  53.2381 167.0309 0003278  23.6774 336.4379 15.31486025103207,6849.515,94.026,473.625,469.135,0.0
52997.0,STARLINK-4301,PAYLOAD,2024-05-11 18:58:28,15.31562131,0.0003582,53.2394,165.5182,32.5953,327.527,0.0028365,0.00088325,0.0,0 STARLINK-4301,1 52997U 22076M   24132.79060582  .00088325  00000-0  28365-2 0  9990,2 52997  53.2394 165.5182 0003582  32.5953 327.5270 15.31562131102785,6849.288,94.022,473.606,468.7,0.0
52997.0,STARLINK-4301,PAYLOAD,2024-05-12 05:56:14,15.31628643,0.000337,53.2399,163.396,29.2964,330.8227,0.0017478,0.00054147,0.0,0 STARLINK-4301,1 52997U 22076M   24133.24738983  .00054147  00000-0  17478-2 0  9996,2 52997  53.2399 163.3960 0003370  29.2964 330.8227 15.31628643103321,6849.09,94.018,473.263,468.647,0.0
52997.0,STARLINK-4301,PAYLOAD,2024-05-12 09:04:10,15.31641939,0.0003319,53.2402,162.79,30.7182,329.4015,0.0016502,0.00051103,0.0,0 STARLINK-4301,1 52997U 22076M   24133.37789668  .00051103  00000-0  16502-2 0  9992,2 52997  53.2402 162.7900 0003319  30.7182 329.4015 15.31641939102876,6849.05,94.017,473.188,468.642,0.0
52997.0,STARLINK-4301,PAYLOAD,2024-05-12 18:27:56,15.31692766,0.000335,53.241,160.9717,35.0114,325.1108,0.0018384,0.0005711,0.0,0 STARLINK-4301,1 52997U 22076M   24133.76940821  .00057110  00000-0  18384-2 0  9999,2 52997  53.2410 160.9717 0003350  35.0114 325.1108 15.31692766102936,6848.899,94.014,473.058,468.469,0.0
52997.0,STARLINK-4301,PAYLOAD,2024-05-13 05:25:39,15.31765244,0.0003466,53.2394,158.8469,29.4522,330.6676,0.0015731,0.00048873,0.0,0 STARLINK-4301,1 52997U 22076M   24134.22614958  .00048873  00000-0  15731-2 0  9999,2 52997  53.2394 158.8469 0003466  29.4522 330.6676 15.31765244103478,6848.683,94.009,472.921,468.174,0.0
52997.0,STARLINK-4301,PAYLOAD,2024-05-13 08:33:33,15.31793479,0.0003469,53.2405,158.2425,32.0674,328.0539,0.002028,0.0006329,0.0,0 STARLINK-4301,1 52997U 22076M   24134.35664351  .00063290  00000-0  20280-2 0  9990,2 52997  53.2405 158.2425 0003469  32.0674 328.0539 15.31793479103029,6848.598,94.007,472.839,468.088,0.0
52997.0,STARLINK-4301,PAYLOAD,2024-05-14 04:54:55,15.31935848,0.0003691,53.2397,154.297,29.0412,331.0795,0.0022598,0.00070956,0.0,0 STARLINK-4301,1 52997U 22076M   24135.20480768  .00070956  00000-0  22598-2 0  9994,2 52997  53.2397 154.2970 0003691  29.0412 331.0795 15.31935848103625,6848.174,93.999,472.567,467.511,0.0
52997.0,STARLINK-4301,PAYLOAD,2024-05-14 08:02:48,15.31959696,0.0003913,53.2402,153.6894,27.9594,332.1618,0.002436,0.00076634,0.0,0 STARLINK-4301,1 52997U 22076M   24135.33528804  .00076634  00000-0  24360-2 0  9990,2 52997  53.2402 153.6894 0003913  27.9594 332.1618 15.31959696103178,6848.103,93.997,472.648,467.288,0.0
52997.0,STARLINK-4301,PAYLOAD,2024-05-15 05:57:59,15.32104365,0.0003933,53.2411,149.4443,32.3473,327.777,0.0026747,0.00084654,0.0,0 STARLINK-4301,1 52997U 22076M   24136.24860132  .00084654  00000-0  26747-2 0  9996,2 52997  53.2411 149.4443 0003933  32.3473 327.7770 15.32104365103781,6847.672,93.988,472.23,466.844,0.0
